[{"OBJECT_NAME":"ONEWEB-0010","OBJECT_ID":"2019-010B","EPOCH":"2026-03-09T20:59:15.707040","MEAN_MOTION":13.1658675,"ECCENTRICITY":0.00020163,"INCLINATION":87.9006,"RA_OF_ASC_NODE":248.5335,"ARG_OF_PERICENTER":100.5615,"MEAN_ANOMALY":259.5743,"EPHEMERIS_TYPE":0,"CLASSIFICATION_TYPE":"U","NORAD_CAT_ID":44058,"ELEMENT_SET_NO":999,"REV_AT_EPOCH":33854,"BSTAR":0.0040102917,"MEAN_MOTION_DOT":1.546e-5,"MEAN_MOTION_DDOT":0},{"OBJECT_NAME":"DELTA 1 DEB","OBJECT_ID":"1966-087E","EPOCH":"2026-03-09T12:12:12.925152","MEAN_MOTION":13.25110686,"ECCENTRICITY":0.00504697,"INCLINATION":101.7667,"RA_OF_ASC_NODE":77.3995,"ARG_OF_PERICENTER":95.8923,"MEAN_ANOMALY":58.3222,"EPHEMERIS_TYPE":0,"CLASSIFICATION_TYPE":"U","NORAD_CAT_ID":6213,"ELEMENT_SET_NO":999,"REV_AT_EPOCH":78314,"BSTAR":0.0077530095,"MEAN_MOTION_DOT":3.336e-5,"MEAN_MOTION_DDOT":0}]
